{
    "links": {
        "self": "http://www.neowsapp.com/rest/v1/neo/3691711?api_key=iIulBulltgU6a56xZRHN4H3l9WmuAYTsLGpBGhQ2"
    },
    "id": "3691711",
    "neo_reference_id": "3691711",
    "name": "(2014 SC304)",
    "designation": "2014 SC304",
    "nasa_jpl_url": "http://ssd.jpl.nasa.gov/sbdb.cgi?sstr=3691711",
    "absolute_magnitude_h": 23.2,
    "estimated_diameter": {
        "kilometers": {
            "estimated_diameter_min": 0.0608912622,
            "estimated_diameter_max": 0.1361570015
        },
        "meters": {
            "estimated_diameter_min": 60.8912622106,
            "estimated_diameter_max": 136.1570015386
        },
        "miles": {
            "estimated_diameter_min": 0.0378360645,
            "estimated_diameter_max": 0.0846040122
        },
        "feet": {
            "estimated_diameter_min": 199.7744887109,
            "estimated_diameter_max": 446.7093369279
        }
    },
    "is_potentially_hazardous_asteroid": false,
    "close_approach_data": [
        {
            "close_approach_date": "2014-10-11",
            "close_approach_date_full": "2014-Oct-11 03:50",
            "epoch_date_close_approach": 1412999400000,
            "relative_velocity": {
                "kilometers_per_second": "14.8071465887",
                "kilometers_per_hour": "53305.7277191872",
                "miles_per_hour": "33122.1062041805"
            },
            "miss_distance": {
                "astronomical": "0.1257973637",
                "lunar": "48.9351744793",
                "kilometers": "18819017.661135319",
                "miles": "11693595.3354086422"
            },
            "orbiting_body": "Earth"
        },
        {
            "close_approach_date": "2015-03-13",
            "close_approach_date_full": "2015-Mar-13 07:30",
            "epoch_date_close_approach": 1426231800000,
            "relative_velocity": {
                "kilometers_per_second": "13.0432807944",
                "kilometers_per_hour": "46955.8108599847",
                "miles_per_hour": "29176.5148090833"
            },
            "miss_distance": {
                "astronomical": "0.3204260723",
                "lunar": "124.6457421247",
                "kilometers": "47935057.908546001",
                "miles": "29785463.8140607738"
            },
            "orbiting_body": "Earth"
        }
    ],
    "orbital_data": {
        "orbit_id": "8",
        "orbit_determination_date": "2017-04-06 08:38:20",
        "first_observation_date": "2014-09-29",
        "last_observation_date": "2014-10-06",
        "data_arc_in_days": 7,
        "observations_used": 47,
        "orbit_uncertainty": "8",
        "minimum_orbit_intersection": ".123081",
        "jupiter_tisserand_invariant": "4.639",
        "epoch_osculation": "2456930.5",
        "eccentricity": ".3093257362267191",
        "semi_major_axis": "1.389040641653668",
        "inclination": "24.66006812541843",
        "ascending_node_longitude": "190.5968088955759",
        "orbital_period": "597.9582416715128",
        "perihelion_distance": ".9593746225253127",
        "perihelion_argument": "251.8015711451369",
        "aphelion_distance": "1.818706660782023",
        "perihelion_time": "2456999.029629662418",
        "mean_anomaly": "318.7418234933816",
        "mean_motion": ".6020487300144368",
        "equinox": "J2000",
        "orbit_class": {
            "orbit_class_type": "APO",
            "orbit_class_description": "Near-Earth asteroid orbits which cross the Earth’s orbit similar to that of 1862 Apollo",
            "orbit_class_range": "a (semi-major axis) > 1.0 AU; q (perihelion) < 1.017 AU"
        }
    },
    "is_sentry_object": false
}